[{"OBJECT_NAME":"STARLINK-31975","OBJECT_ID":"2024-100B","EPOCH":"2026-03-09T12:57:49.659840","MEAN_MOTION":15.2759966,"ECCENTRICITY":8.598e-5,"INCLINATION":43.0001,"RA_OF_ASC_NODE":126.2718,"ARG_OF_PERICENTER":177.9327,"MEAN_ANOMALY":182.1528,"EPHEMERIS_TYPE":0,"CLASSIFICATION_TYPE":"U","NORAD_CAT_ID":59886,"ELEMENT_SET_NO":999,"REV_AT_EPOCH":10113,"BSTAR":-0.00030686127,"MEAN_MOTION_DOT":-8.701e-5,"MEAN_MOTION_DDOT":0},{"OBJECT_NAME":"OBJECT H","OBJECT_ID":"2025-155H","EPOCH":"2026-03-09T22:09:58.611456","MEAN_MOTION":15.27590961,"ECCENTRICITY":0.00081993,"INCLINATION":97.4482,"RA_OF_ASC_NODE":37.3122,"ARG_OF_PERICENTER":152.0629,"MEAN_ANOMALY":208.1051,"EPHEMERIS_TYPE":0,"CLASSIFICATION_TYPE":"U","NORAD_CAT_ID":64883,"ELEMENT_SET_NO":999,"REV_AT_EPOCH":6559,"BSTAR":0.00050403256,"MEAN_MOTION_DOT":0.00013547,"MEAN_MOTION_DDOT":0}]
